{
  "type": "FeatureCollection",
  "features": [
    {
      "type": "Feature",
      "properties": {
        "norad_id": 31629,
        "name": "FENGYUN 1C DEB",
        "group": "fengyun-1c-debris",
        "lat": 43.48500244648187,
        "lon": 37.93901270555237,
        "alt_km": 790.6100689904051,
        "timestamp": "2025-12-25T07:41:10.006436+00:00",
        "meta_object_name": "FENGYUN 1C DEB",
        "meta_object_id": "1999-025CAK",
        "meta_epoch": "2025-12-22T21:46:19.265952",
        "meta_mean_motion": 14.1470932,
        "meta_eccentricity": 0.0103695,
        "meta_inclination": 102.1329,
        "meta_ra_of_asc_node": 46.4435,
        "meta_arg_of_pericenter": 1.0988,
        "meta_mean_anomaly": 359.0383,
        "meta_ephemeris_type": 0,
        "meta_classification_type": "U",
        "meta_norad_cat_id": 31629,
        "meta_element_set_no": 999,
        "meta_rev_at_epoch": 94590,
        "meta_bstar": 0.0024639,
        "meta_mean_motion_dot": 4.928e-05,
        "meta_mean_motion_ddot": 0,
        "tle_line1": "1 31629U 99025CAK 25356.90716743  .00004928  00000+0  24639-2 0  9992",
        "tle_line2": "2 31629 102.1329  46.4435 0103695   1.0988 359.0383 14.14709320945906"
      },
      "geometry": {
        "type": "Point",
        "coordinates": [
          37.93901270555237,
          43.48500244648187
        ]
      }
    },
    {
      "type": "Feature",
      "properties": {
        "norad_id": 31630,
        "name": "FENGYUN 1C DEB",
        "group": "fengyun-1c-debris",
        "lat": -17.664954420665467,
        "lon": -15.111179840052769,
        "alt_km": 600.4079289308802,
        "timestamp": "2025-12-25T07:41:10.006446+00:00",
        "meta_object_name": "FENGYUN 1C DEB",
        "meta_object_id": "1999-025CAL",
        "meta_epoch": "2025-12-22T05:28:34.626720",
        "meta_mean_motion": 15.06551514,
        "meta_eccentricity": 0.01641353,
        "meta_inclination": 98.0893,
        "meta_ra_of_asc_node": 164.2373,
        "meta_arg_of_pericenter": 324.5448,
        "meta_mean_anomaly": 34.4953,
        "meta_ephemeris_type": 0,
        "meta_classification_type": "U",
        "meta_norad_cat_id": 31630,
        "meta_element_set_no": 999,
        "meta_rev_at_epoch": 98733,
        "meta_bstar": 0.0009387373,
        "meta_mean_motion_dot": 0.00018857,
        "meta_mean_motion_ddot": 0,
        "tle_line1": "1 31630U 99025CAL 25356.22817855  .00018857  00000+0  93874-3 0  9999",
        "tle_line2": "2 31630  98.0893 164.2373 0164135 324.5448  34.4953 15.06551514987339"
      },
      "geometry": {
        "type": "Point",
        "coordinates": [
          -15.111179840052769,
          -17.664954420665467
        ]
      }
    },
    {
      "type": "Feature",
      "properties": {
        "norad_id": 31631,
        "name": "FENGYUN 1C DEB",
        "group": "fengyun-1c-debris",
        "lat": 80.5716504790444,
        "lon": -170.5887068308047,
        "alt_km": 682.422465298434,
        "timestamp": "2025-12-25T07:41:10.006456+00:00",
        "meta_object_name": "FENGYUN 1C DEB",
        "meta_object_id": "1999-025CAM",
        "meta_epoch": "2025-12-21T23:22:10.430976",
        "meta_mean_motion": 14.72256509,
        "meta_eccentricity": 0.00588579,
        "meta_inclination": 99.3447,
        "meta_ra_of_asc_node": 268.1503,
        "meta_arg_of_pericenter": 304.5892,
        "meta_mean_anomaly": 54.9766,
        "meta_ephemeris_type": 0,
        "meta_classification_type": "U",
        "meta_norad_cat_id": 31631,
        "meta_element_set_no": 999,
        "meta_rev_at_epoch": 64108,
        "meta_bstar": 0.0085242028,
        "meta_mean_motion_dot": 0.00055675,
        "meta_mean_motion_ddot": 0,
        "tle_line1": "1 31631U 99025CAM 25355.97373184  .00055675  00000+0  85242-2 0  9991",
        "tle_line2": "2 31631  99.3447 268.1503 0058857 304.5892  54.9766 14.72256509641088"
      },
      "geometry": {
        "type": "Point",
        "coordinates": [
          -170.5887068308047,
          80.5716504790444
        ]
      }
    },
    {
      "type": "Feature",
      "properties": {
        "norad_id": 31634,
        "name": "FENGYUN 1C DEB",
        "group": "fengyun-1c-debris",
        "lat": -58.44720958714834,
        "lon": 61.58725625678281,
        "alt_km": 986.2924830304437,
        "timestamp": "2025-12-25T07:41:10.006466+00:00",
        "meta_object_name": "FENGYUN 1C DEB",
        "meta_object_id": "1999-025CAQ",
        "meta_epoch": "2025-12-17T20:54:46.786176",
        "meta_mean_motion": 13.94677319,
        "meta_eccentricity": 0.00920361,
        "meta_inclination": 99.3665,
        "meta_ra_of_asc_node": 38.4397,
        "meta_arg_of_pericenter": 144.0195,
        "meta_mean_anomaly": 216.7209,
        "meta_ephemeris_type": 0,
        "meta_classification_type": "U",
        "meta_norad_cat_id": 31634,
        "meta_element_set_no": 999,
        "meta_rev_at_epoch": 56595,
        "meta_bstar": 0.00024519173,
        "meta_mean_motion_dot": 2.94e-06,
        "meta_mean_motion_ddot": 0,
        "tle_line1": "1 31634U 99025CAQ 25351.87137484  .00000294  00000+0  24519-3 0  9998",
        "tle_line2": "2 31634  99.3665  38.4397 0092036 144.0195 216.7209 13.94677319565952"
      },
      "geometry": {
        "type": "Point",
        "coordinates": [
          61.58725625678281,
          -58.44720958714834
        ]
      }
    },
    {
      "type": "Feature",
      "properties": {
        "norad_id": 31639,
        "name": "FENGYUN 1C DEB",
        "group": "fengyun-1c-debris",
        "lat": 74.73763189249782,
        "lon": 158.75144710365598,
        "alt_km": 821.0732136707202,
        "timestamp": "2025-12-25T07:41:10.006476+00:00",
        "meta_object_name": "FENGYUN 1C DEB",
        "meta_object_id": "1999-025CAV",
        "meta_epoch": "2025-12-22T15:39:08.252640",
        "meta_mean_motion": 13.85166588,
        "meta_eccentricity": 0.01620254,
        "meta_inclination": 98.7446,
        "meta_ra_of_asc_node": 301.925,
        "meta_arg_of_pericenter": 118.3699,
        "meta_mean_anomaly": 7.054,
        "meta_ephemeris_type": 0,
        "meta_classification_type": "U",
        "meta_norad_cat_id": 31639,
        "meta_element_set_no": 999,
        "meta_rev_at_epoch": 93825,
        "meta_bstar": 0.0001297758,
        "meta_mean_motion_dot": 1.24e-06,
        "meta_mean_motion_ddot": 0,
        "tle_line1": "1 31639U 99025CAV 25356.65217885  .00000124  00000+0  12978-3 0  9996",
        "tle_line2": "2 31639  98.7446 301.9250 0162025 118.3699   7.0540 13.85166588938259"
      },
      "geometry": {
        "type": "Point",
        "coordinates": [
          158.75144710365598,
          74.73763189249782
        ]
      }
    },
    {
      "type": "Feature",
      "properties": {
        "norad_id": 31642,
        "name": "FENGYUN 1C DEB",
        "group": "fengyun-1c-debris",
        "lat": -51.35423371406577,
        "lon": 92.08532492963869,
        "alt_km": 784.5623121729905,
        "timestamp": "2025-12-25T07:41:10.006486+00:00",
        "meta_object_name": "FENGYUN 1C DEB",
        "meta_object_id": "1999-025CAY",
        "meta_epoch": "2025-12-21T23:31:02.703360",
        "meta_mean_motion": 14.33421093,
        "meta_eccentricity": 0.0119447,
        "meta_inclination": 98.5036,
        "meta_ra_of_asc_node": 78.0193,
        "meta_arg_of_pericenter": 228.8987,
        "meta_mean_anomaly": 130.1835,
        "meta_ephemeris_type": 0,
        "meta_classification_type": "U",
        "meta_norad_cat_id": 31642,
        "meta_element_set_no": 999,
        "meta_rev_at_epoch": 97151,
        "meta_bstar": 0.0003454307,
        "meta_mean_motion_dot": 9.86e-06,
        "meta_mean_motion_ddot": 0,
        "tle_line1": "1 31642U 99025CAY 25355.97989240  .00000986  00000+0  34543-3 0  9993",
        "tle_line2": "2 31642  98.5036  78.0193 0119447 228.8987 130.1835 14.33421093971511"
      },
      "geometry": {
        "type": "Point",
        "coordinates": [
          92.08532492963869,
          -51.35423371406577
        ]
      }
    },
    {
      "type": "Feature",
      "properties": {
        "norad_id": 31644,
        "name": "FENGYUN 1C DEB",
        "group": "fengyun-1c-debris",
        "lat": 8.709451247822813,
        "lon": -111.42642991188116,
        "alt_km": 745.2709616070406,
        "timestamp": "2025-12-25T07:41:10.006496+00:00",
        "meta_object_name": "FENGYUN 1C DEB",
        "meta_object_id": "1999-025CBA",
        "meta_epoch": "2025-12-24T11:09:42.035040",
        "meta_mean_motion": 14.6801574,
        "meta_eccentricity": 0.01546634,
        "meta_inclination": 98.6703,
        "meta_ra_of_asc_node": 249.0073,
        "meta_arg_of_pericenter": 146.5214,
        "meta_mean_anomaly": 26.7938,
        "meta_ephemeris_type": 0,
        "meta_classification_type": "U",
        "meta_norad_cat_id": 31644,
        "meta_element_set_no": 999,
        "meta_rev_at_epoch": 71216,
        "meta_bstar": 0.00077873285,
        "meta_mean_motion_dot": 5.292e-05,
        "meta_mean_motion_ddot": 0,
        "tle_line1": "1 31644U 99025CBA 25358.46506985  .00005292  00000+0  77873-3 0  9991",
        "tle_line2": "2 31644  98.6703 249.0073 0154663 146.5214  26.7938 14.68015740712164"
      },
      "geometry": {
        "type": "Point",
        "coordinates": [
          -111.42642991188116,
          8.709451247822813
        ]
      }
    }
  ]
}